{
  "type": "FeatureCollection",
  "features": [
    {
      "type": "Feature",
      "properties": {
        "norad_id": 66816,
        "name": "STARLINK-36098",
        "group": "last-30-days",
        "lat": 42.16889459875948,
        "lon": -41.26797142044993,
        "alt_km": 317.4423776162739,
        "timestamp": "2025-12-14T07:33:18.188357+00:00",
        "meta_object_name": "STARLINK-36098",
        "meta_object_id": "2025-278AB",
        "meta_epoch": "2025-12-13T16:05:08.049120",
        "meta_mean_motion": 15.8487421,
        "meta_eccentricity": 0.00035525,
        "meta_inclination": 42.9971,
        "meta_ra_of_asc_node": 246.2571,
        "meta_arg_of_pericenter": 285.5355,
        "meta_mean_anomaly": 74.5125,
        "meta_ephemeris_type": 0,
        "meta_classification_type": "U",
        "meta_norad_cat_id": 66816,
        "meta_element_set_no": 999,
        "meta_rev_at_epoch": 198,
        "meta_bstar": -0.0062226024,
        "meta_mean_motion_dot": -0.01321783,
        "meta_mean_motion_ddot": 0,
        "tle_line1": "1 66816U 25278AB  25347.67023205 -.01321783  00000+0 -62226-2 0  9993",
        "tle_line2": "2 66816  42.9971 246.2571 0003552 285.5355  74.5125 15.84874210  1988"
      },
      "geometry": {
        "type": "Point",
        "coordinates": [
          -41.26797142044993,
          42.16889459875948
        ]
      }
    },
    {
      "type": "Feature",
      "properties": {
        "norad_id": 66817,
        "name": "STARLINK-35995",
        "group": "last-30-days",
        "lat": 42.933695129571994,
        "lon": -24.641603462834922,
        "alt_km": 308.98394596304297,
        "timestamp": "2025-12-14T07:33:18.188367+00:00",
        "meta_object_name": "STARLINK-35995",
        "meta_object_id": "2025-278AC",
        "meta_epoch": "2025-12-13T14:33:14.421888",
        "meta_mean_motion": 15.86807538,
        "meta_eccentricity": 0.00113024,
        "meta_inclination": 42.9965,
        "meta_ra_of_asc_node": 246.6395,
        "meta_arg_of_pericenter": 234.2642,
        "meta_mean_anomaly": 125.7181,
        "meta_ephemeris_type": 0,
        "meta_classification_type": "U",
        "meta_norad_cat_id": 66817,
        "meta_element_set_no": 999,
        "meta_rev_at_epoch": 197,
        "meta_bstar": 0.001515365,
        "meta_mean_motion_dot": 0.00422334,
        "meta_mean_motion_ddot": 0,
        "tle_line1": "1 66817U 25278AC  25347.60641692  .00422334  00000+0  15154-2 0  9992",
        "tle_line2": "2 66817  42.9965 246.6395 0011302 234.2642 125.7181 15.86807538  1973"
      },
      "geometry": {
        "type": "Point",
        "coordinates": [
          -24.641603462834922,
          42.933695129571994
        ]
      }
    },
    {
      "type": "Feature",
      "properties": {
        "norad_id": 66818,
        "name": "STARLINK-35994",
        "group": "last-30-days",
        "lat": 42.85706307721118,
        "lon": -32.956959277597825,
        "alt_km": 309.79287308215316,
        "timestamp": "2025-12-14T07:33:18.188378+00:00",
        "meta_object_name": "STARLINK-35994",
        "meta_object_id": "2025-278AD",
        "meta_epoch": "2025-12-13T03:59:19.671360",
        "meta_mean_motion": 15.86415489,
        "meta_eccentricity": 0.00028361,
        "meta_inclination": 42.9975,
        "meta_ra_of_asc_node": 249.361,
        "meta_arg_of_pericenter": 274.2297,
        "meta_mean_anomaly": 85.8252,
        "meta_ephemeris_type": 0,
        "meta_classification_type": "U",
        "meta_norad_cat_id": 66818,
        "meta_element_set_no": 999,
        "meta_rev_at_epoch": 190,
        "meta_bstar": -0.0014167145,
        "meta_mean_motion_dot": -0.00354579,
        "meta_mean_motion_ddot": 0,
        "tle_line1": "1 66818U 25278AD  25347.16619990 -.00354579  00000+0 -14167-2 0  9990",
        "tle_line2": "2 66818  42.9975 249.3610 0002836 274.2297  85.8252 15.86415489  1905"
      },
      "geometry": {
        "type": "Point",
        "coordinates": [
          -32.956959277597825,
          42.85706307721118
        ]
      }
    },
    {
      "type": "Feature",
      "properties": {
        "norad_id": 66819,
        "name": "STARLINK-35989",
        "group": "last-30-days",
        "lat": 42.5361843252883,
        "lon": -17.708364133428926,
        "alt_km": 325.42113682807303,
        "timestamp": "2025-12-14T07:33:18.188388+00:00",
        "meta_object_name": "STARLINK-35989",
        "meta_object_id": "2025-278AE",
        "meta_epoch": "2025-12-13T02:25:59.508480",
        "meta_mean_motion": 15.87984782,
        "meta_eccentricity": 0.00193199,
        "meta_inclination": 42.9981,
        "meta_ra_of_asc_node": 249.7349,
        "meta_arg_of_pericenter": 275.1685,
        "meta_mean_anomaly": 84.6984,
        "meta_ephemeris_type": 0,
        "meta_classification_type": "U",
        "meta_norad_cat_id": 66819,
        "meta_element_set_no": 999,
        "meta_rev_at_epoch": 189,
        "meta_bstar": -0.0055008218,
        "meta_mean_motion_dot": -0.01562027,
        "meta_mean_motion_ddot": 0.00065817872,
        "tle_line1": "1 66819U 25278AE  25347.10138320 -.01562027  65818-3 -55008-2 0  9999",
        "tle_line2": "2 66819  42.9981 249.7349 0019319 275.1685  84.6984 15.87984782  1896"
      },
      "geometry": {
        "type": "Point",
        "coordinates": [
          -17.708364133428926,
          42.5361843252883
        ]
      }
    },
    {
      "type": "Feature",
      "properties": {
        "norad_id": 66820,
        "name": "KOMPSAT-7",
        "group": "last-30-days",
        "lat": -19.339334639615323,
        "lon": 111.4496968608057,
        "alt_km": 569.5971592682545,
        "timestamp": "2025-12-14T07:33:18.188400+00:00",
        "meta_object_name": "KOMPSAT-7",
        "meta_object_id": "2025-279A",
        "meta_epoch": "2025-12-13T16:14:55.633920",
        "meta_mean_motion": 14.98959073,
        "meta_eccentricity": 0.00087252,
        "meta_inclination": 97.6412,
        "meta_ra_of_asc_node": 293.5252,
        "meta_arg_of_pericenter": 221.9329,
        "meta_mean_anomaly": 138.1227,
        "meta_ephemeris_type": 0,
        "meta_classification_type": "U",
        "meta_norad_cat_id": 66820,
        "meta_element_set_no": 999,
        "meta_rev_at_epoch": 179,
        "meta_bstar": 0.00032444446,
        "meta_mean_motion_dot": 3.872e-05,
        "meta_mean_motion_ddot": 0,
        "tle_line1": "1 66820U 25279A   25347.67703280  .00003872  00000+0  32444-3 0  9990",
        "tle_line2": "2 66820  97.6412 293.5252 0008725 221.9329 138.1227 14.98959073  1797"
      },
      "geometry": {
        "type": "Point",
        "coordinates": [
          111.4496968608057,
          -19.339334639615323
        ]
      }
    },
    {
      "type": "Feature",
      "properties": {
        "norad_id": 66821,
        "name": "STARLINK-35966",
        "group": "last-30-days",
        "lat": -45.312305555129846,
        "lon": 172.74234874796258,
        "alt_km": 342.6118920554218,
        "timestamp": "2025-12-14T07:33:18.188413+00:00",
        "meta_object_name": "STARLINK-35966",
        "meta_object_id": "2025-280A",
        "meta_epoch": "2025-12-13T07:25:02.611200",
        "meta_mean_motion": 15.78418618,
        "meta_eccentricity": 0.00036963,
        "meta_inclination": 69.9926,
        "meta_ra_of_asc_node": 197.218,
        "meta_arg_of_pericenter": 286.2434,
        "meta_mean_anomaly": 73.8359,
        "meta_ephemeris_type": 0,
        "meta_classification_type": "U",
        "meta_norad_cat_id": 66821,
        "meta_element_set_no": 999,
        "meta_rev_at_epoch": 301,
        "meta_bstar": -0.0037794284,
        "meta_mean_motion_dot": -0.00611112,
        "meta_mean_motion_ddot": 0,
        "tle_line1": "1 66821U 25280A   25347.30905800 -.00611112  00000+0 -37794-2 0  9991",
        "tle_line2": "2 66821  69.9926 197.2180 0003696 286.2434  73.8359 15.78418618  3015"
      },
      "geometry": {
        "type": "Point",
        "coordinates": [
          172.74234874796258,
          -45.312305555129846
        ]
      }
    },
    {
      "type": "Feature",
      "properties": {
        "norad_id": 66822,
        "name": "STARLINK-35958",
        "group": "last-30-days",
        "lat": -44.22827065722678,
        "lon": 173.58152423387386,
        "alt_km": 338.77976817192666,
        "timestamp": "2025-12-14T07:33:18.188425+00:00",
        "meta_object_name": "STARLINK-35958",
        "meta_object_id": "2025-280B",
        "meta_epoch": "2025-12-13T15:00:37.270368",
        "meta_mean_motion": 15.78082913,
        "meta_eccentricity": 0.00156071,
        "meta_inclination": 69.9925,
        "meta_ra_of_asc_node": 196.3142,
        "meta_arg_of_pericenter": 292.1158,
        "meta_mean_anomaly": 67.8385,
        "meta_ephemeris_type": 0,
        "meta_classification_type": "U",
        "meta_norad_cat_id": 66822,
        "meta_element_set_no": 999,
        "meta_rev_at_epoch": 306,
        "meta_bstar": -0.010587533,
        "meta_mean_motion_dot": -0.01601485,
        "meta_mean_motion_ddot": 0,
        "tle_line1": "1 66822U 25280B   25347.62543137 -.01601485  00000+0 -10588-1 0  9992",
        "tle_line2": "2 66822  69.9925 196.3142 0015607 292.1158  67.8385 15.78082913  3069"
      },
      "geometry": {
        "type": "Point",
        "coordinates": [
          173.58152423387386,
          -44.22827065722678
        ]
      }
    }
  ]
}